{"type": "FeatureCollection", "features": [ {"type": "Feature", "properties": {"norad_id": 35744, "name": "IRIDIUM 33 DEB", "group": "iridium-33-debris", "lat": -44.12384304623356, "lon": 153.7246482972019, "alt_km": 652.0802741856251, "timestamp": "2025-12-02T07:10:09.501513+00:00", "meta": {"OBJECT_NAME": "IRIDIUM 33 DEB", "OBJECT_ID": "1997-051RX", "EPOCH": "2025-12-01T10:33:27.338400", "MEAN_MOTION": 14.70742229, "ECCENTRICITY": 0.00191608, "INCLINATION": 86.3286, "RA_OF_ASC_NODE": 330.5421, "ARG_OF_PERICENTER": 234.6464, "MEAN_ANOMALY": 125.2961, "EPHEMERIS_TYPE": 0, "CLASSIFICATION_TYPE": "U", "NORAD_CAT_ID": 35744, "ELEMENT_SET_NO": 999, "REV_AT_EPOCH": 87165, "BSTAR": 0.0014382783, "MEAN_MOTION_DOT": 8.82e-05, "MEAN_MOTION_DDOT": 0}, "tle": {"line1": "1 35744U 97051RX  25335.43989975  .00008820  00000+0  14383-2 0  9995", "line2": "2 35744  86.3286 330.5421 0019160 234.6464 125.2961 14.70742229871653"}}, "geometry": {"type": "Point", "coordinates": [153.7246482972019, -44.12384304623356]}}, {"type": "Feature", "properties": {"norad_id": 35797, "name": "IRIDIUM 33 DEB", "group": "iridium-33-debris", "lat": -54.68695157088388, "lon": 159.95963349649384, "alt_km": 623.9441093703317, "timestamp": "2025-12-02T07:10:09.501532+00:00", "meta": {"OBJECT_NAME": "IRIDIUM 33 DEB", "OBJECT_ID": "1997-051SF", "EPOCH": "2025-12-01T07:25:51.189600", "MEAN_MOTION": 14.82266268, "ECCENTRICITY": 0.00115219, "INCLINATION": 86.3361, "RA_OF_ASC_NODE": 335.2237, "ARG_OF_PERICENTER": 188.9295, "MEAN_ANOMALY": 171.1725, "EPHEMERIS_TYPE": 0, "CLASSIFICATION_TYPE": "U", "NORAD_CAT_ID": 35797, "ELEMENT_SET_NO": 999, "REV_AT_EPOCH": 87171, "BSTAR": 0.0020950806, "MEAN_MOTION_DOT": 0.0001679, "MEAN_MOTION_DDOT": 0}, "tle": {"line1": "1 35797U 97051SF  25335.30962025  .00016790  00000+0  20951-2 0  9999", "line2": "2 35797  86.3361 335.2237 0011521 188.9295 171.1725 14.82266268871710"}}, "geometry": {"type": "Point", "coordinates": [159.95963349649384, -54.68695157088388]}}, {"type": "Feature", "properties": {"norad_id": 35806, "name": "IRIDIUM 33 DEB", "group": "iridium-33-debris", "lat": 48.32328527332907, "lon": 29.34458675372135, "alt_km": 691.5034712141396, "timestamp": "2025-12-02T07:10:09.501548+00:00", "meta": {"OBJECT_NAME": "IRIDIUM 33 DEB", "OBJECT_ID": "1997-051SQ", "EPOCH": "2025-11-21T22:04:29.472384", "MEAN_MOTION": 14.57052239, "ECCENTRICITY": 0.00159672, "INCLINATION": 86.3448, "RA_OF_ASC_NODE": 29.7928, "ARG_OF_PERICENTER": 137.8294, "MEAN_ANOMALY": 222.4146, "EPHEMERIS_TYPE": 0, "CLASSIFICATION_TYPE": "U", "NORAD_CAT_ID": 35806, "ELEMENT_SET_NO": 999, "REV_AT_EPOCH": 86021, "BSTAR": 0.0011489261, "MEAN_MOTION_DOT": 5.199e-05, "MEAN_MOTION_DDOT": 0}, "tle": {"line1": "1 35806U 97051SQ  25325.91978556  .00005199  00000+0  11489-2 0  9999", "line2": "2 35806  86.3448  29.7928 0015967 137.8294 222.4146 14.57052239860212"}}, "geometry": {"type": "Point", "coordinates": [29.34458675372135, 48.32328527332907]}}, {"type": "Feature", "properties": {"norad_id": 35809, "name": "IRIDIUM 33 DEB", "group": "iridium-33-debris", "lat": 85.9514220424205, "lon": 45.2375488418622, "alt_km": 643.2038983441898, "timestamp": "2025-12-02T07:10:09.501558+00:00", "meta": {"OBJECT_NAME": "IRIDIUM 33 DEB", "OBJECT_ID": "1997-051ST", "EPOCH": "2025-12-01T17:44:51.389952", "MEAN_MOTION": 14.75313912, "ECCENTRICITY": 0.0009966, "INCLINATION": 86.3281, "RA_OF_ASC_NODE": 340.3571, "ARG_OF_PERICENTER": 290.7283, "MEAN_ANOMALY": 69.2867, "EPHEMERIS_TYPE": 0, "CLASSIFICATION_TYPE": "U", "NORAD_CAT_ID": 35809, "ELEMENT_SET_NO": 999, "REV_AT_EPOCH": 86645, "BSTAR": 0.0015973, "MEAN_MOTION_DOT": 0.00010859, "MEAN_MOTION_DDOT": 0}, "tle": {"line1": "1 35809U 97051ST  25335.73948368  .00010859  00000+0  15973-2 0  9992", "line2": "2 35809  86.3281 340.3571 0009966 290.7283  69.2867 14.75313912866452"}}, "geometry": {"type": "Point", "coordinates": [45.2375488418622, 85.9514220424205]}}, {"type": "Feature", "properties": {"norad_id": 35846, "name": "IRIDIUM 33 DEB", "group": "iridium-33-debris", "lat": 6.106085803878427, "lon": 63.68336827943822, "alt_km": 761.2532182663381, "timestamp": "2025-12-02T07:10:09.501569+00:00", "meta": {"OBJECT_NAME": "IRIDIUM 33 DEB", "OBJECT_ID": "1997-051SW", "EPOCH": "2025-11-15T14:04:07.017312", "MEAN_MOTION": 14.42992821, "ECCENTRICITY": 0.00163082, "INCLINATION": 86.3745, "RA_OF_ASC_NODE": 70.4244, "ARG_OF_PERICENTER": 263.1259, "MEAN_ANOMALY": 96.8086, "EPHEMERIS_TYPE": 0, "CLASSIFICATION_TYPE": "U", "NORAD_CAT_ID": 35846, "ELEMENT_SET_NO": 999, "REV_AT_EPOCH": 70937, "BSTAR": 0.0011049939, "MEAN_MOTION_DOT": 3.722e-05, "MEAN_MOTION_DDOT": 0}, "tle": {"line1": "1 35846U 97051SW  25319.58619233  .00003722  00000+0  11050-2 0  9997", "line2": "2 35846  86.3745  70.4244 0016308 263.1259  96.8086 14.42992821709373"}}, "geometry": {"type": "Point", "coordinates": [63.68336827943822, 6.106085803878427]}}, {"type": "Feature", "properties": {"norad_id": 35848, "name": "IRIDIUM 33 DEB", "group": "iridium-33-debris", "lat": -69.03452512267133, "lon": 11.34276668676692, "alt_km": 639.3221955482895, "timestamp": "2025-12-02T07:10:09.501579+00:00", "meta": {"OBJECT_NAME": "IRIDIUM 33 DEB", "OBJECT_ID": "1997-051SY", "EPOCH": "2025-12-01T10:21:45.439488", "MEAN_MOTION": 14.7824162, "ECCENTRICITY": 0.00067103, "INCLINATION": 86.3925, "RA_OF_ASC_NODE": 21.2088, "ARG_OF_PERICENTER": 240.9704, "MEAN_ANOMALY": 119.0844, "EPHEMERIS_TYPE": 0, "CLASSIFICATION_TYPE": "U", "NORAD_CAT_ID": 35848, "ELEMENT_SET_NO": 999, "REV_AT_EPOCH": 66523, "BSTAR": 0.0018930249, "MEAN_MOTION_DOT": 0.00013775, "MEAN_MOTION_DDOT": 0}, "tle": {"line1": "1 35848U 97051SY  25335.43177592  .00013775  00000+0  18930-2 0  9991", "line2": "2 35848  86.3925  21.2088 0006710 240.9704 119.0844 14.78241620665238"}}, "geometry": {"type": "Point", "coordinates": [11.34276668676692, -69.03452512267133]}}, {"type": "Feature", "properties": {"norad_id": 35850, "name": "IRIDIUM 33 DEB", "group": "iridium-33-debris", "lat": -68.96032866371048, "lon": 178.5441202167068, "alt_km": 636.2010198365888, "timestamp": "2025-12-02T07:10:09.501590+00:00", "meta": {"OBJECT_NAME": "IRIDIUM 33 DEB", "OBJECT_ID": "1997-051TA", "EPOCH": "2025-12-01T18:40:27.066720", "MEAN_MOTION": 14.78420845, "ECCENTRICITY": 0.0008066, "INCLINATION": 86.3537, "RA_OF_ASC_NODE": 349.2379, "ARG_OF_PERICENTER": 235.0817, "MEAN_ANOMALY": 124.9646, "EPHEMERIS_TYPE": 0, "CLASSIFICATION_TYPE": "U", "NORAD_CAT_ID": 35850, "ELEMENT_SET_NO": 999, "REV_AT_EPOCH": 71195, "BSTAR": 0.0016119, "MEAN_MOTION_DOT": 0.00011781, "MEAN_MOTION_DDOT": 0}, "tle": {"line1": "1 35850U 97051TA  25335.77809105  .00011781  00000+0  16119-2 0  9995", "line2": "2 35850  86.3537 349.2379 0008066 235.0817 124.9646 14.78420845711956"}}, "geometry": {"type": "Point", "coordinates": [178.5441202167068, -68.96032866371048]}}, {"type": "Feature", "properties": {"norad_id": 35915, "name": "IRIDIUM 33 DEB", "group": "iridium-33-debris", "lat": 61.672038771684115, "lon": 160.91739632047774, "alt_km": 624.9282340556201, "timestamp": "2025-12-02T07:10:09.501601+00:00", "meta": {"OBJECT_NAME": "IRIDIUM 33 DEB", "OBJECT_ID": "1997-051TY", "EPOCH": "2025-12-01T19:16:49.071072", "MEAN_MOTION": 14.80276921, "ECCENTRICITY": 0.0009695, "INCLINATION": 86.3446, "RA_OF_ASC_NODE": 347.9542, "ARG_OF_PERICENTER": 230.6927, "MEAN_ANOMALY": 129.3435, "EPHEMERIS_TYPE": 0, "CLASSIFICATION_TYPE": "U", "NORAD_CAT_ID": 35915, "ELEMENT_SET_NO": 999, "REV_AT_EPOCH": 7924, "BSTAR": 0.0016582, "MEAN_MOTION_DOT": 0.00012667, "MEAN_MOTION_DDOT": 0}, "tle": {"line1": "1 35915U 97051TY  25335.80334573  .00012667  00000+0  16582-2 0  9991", "line2": "2 35915  86.3446 347.9542 0009695 230.6927 129.3435 14.80276921 79247"}}, "geometry": {"type": "Point", "coordinates": [160.91739632047774, 61.672038771684115]}}, {"type": "Feature", "properties": {"norad_id": 35918, "name": "IRIDIUM 33 DEB", "group": "iridium-33-debris", "lat": -64.74844136255619, "lon": 72.6252850934217, "alt_km": 729.782871962715, "timestamp": "2025-12-02T07:10:09.501611+00:00", "meta": {"OBJECT_NAME": "IRIDIUM 33 DEB", "OBJECT_ID": "1997-051UB", "EPOCH": "2025-11-30T01:41:55.281408", "MEAN_MOTION": 14.51050885, "ECCENTRICITY": 0.00264066, "INCLINATION": 86.4001, "RA_OF_ASC_NODE": 81.2516, "ARG_OF_PERICENTER": 211.3482, "MEAN_ANOMALY": 332.4953, "EPHEMERIS_TYPE": 0, "CLASSIFICATION_TYPE": "U", "NORAD_CAT_ID": 35918, "ELEMENT_SET_NO": 999, "REV_AT_EPOCH": 85023, "BSTAR": 0.0014523463, "MEAN_MOTION_DOT": 5.795e-05, "MEAN_MOTION_DDOT": 0}, "tle": {"line1": "1 35918U 97051UB  25334.07077872  .00005795  00000+0  14523-2 0  9995", "line2": "2 35918  86.4001  81.2516 0026406 211.3482 332.4953 14.51050885850233"}}, "geometry": {"type": "Point", "coordinates": [72.6252850934217, -64.74844136255619]}}, {"type": "Feature", "properties": {"norad_id": 35929, "name": "IRIDIUM 33 DEB", "group": "iridium-33-debris", "lat": -56.97423813355144, "lon": -48.083201851792055, "alt_km": 577.1899042535115, "timestamp": "2025-12-02T07:10:09.501622+00:00", "meta": {"OBJECT_NAME": "IRIDIUM 33 DEB", "OBJECT_ID": "1997-051UN", "EPOCH": "2025-12-01T05:49:41.273184", "MEAN_MOTION": 15.01229794, "ECCENTRICITY": 0.0019443, "INCLINATION": 86.3342, "RA_OF_ASC_NODE": 318.0763, "ARG_OF_PERICENTER": 68.9233, "MEAN_ANOMALY": 291.4076, "EPHEMERIS_TYPE": 0, "CLASSIFICATION_TYPE": "U", "NORAD_CAT_ID": 35929, "ELEMENT_SET_NO": 999, "REV_AT_EPOCH": 87607, "BSTAR": 0.0032142, "MEAN_MOTION_DOT": 0.0004164, "MEAN_MOTION_DDOT": 0}, "tle": {"line1": "1 35929U 97051UN  25335.24283881  .00041640  00000+0  32142-2 0  9992", "line2": "2 35929  86.3342 318.0763 0019443  68.9233 291.4076 15.01229794876073"}}, "geometry": {"type": "Point", "coordinates": [-48.083201851792055, -56.97423813355144]}}]}